OBJECT_NAME,OBJECT_ID,EPOCH,MEAN_MOTION,ECCENTRICITY,INCLINATION,RA_OF_ASC_NODE,ARG_OF_PERICENTER,MEAN_ANOMALY,EPHEMERIS_TYPE,CLASSIFICATION_TYPE,NORAD_CAT_ID,ELEMENT_SET_NO,REV_AT_EPOCH,BSTAR,MEAN_MOTION_DOT,MEAN_MOTION_DDOT
QIANFAN-170,2026-124F,2026-06-28T14:17:36.960288,14.19185176,.00037915,88.9983,0.7402,111.9491,248.2102,0,U,69387,999,343,.38189626E-4,.94E-6,0
QIANFAN-171,2026-124G,2026-06-28T14:03:09.510336,14.20069274,.00034401,88.9984,0.7388,150.5377,209.6007,0,U,69388,999,343,.37949613E-4,.95E-6,0
QIANFAN-172,2026-124H,2026-06-28T14:09:45.569664,14.19640022,.00035432,88.9984,0.7395,132.6099,227.5391,0,U,69389,999,343,.42283657E-4,.104E-5,0
QIANFAN-173,2026-124J,2026-06-28T13:56:10.422816,14.20511390,.00037305,88.9984,0.7381,124.6687,235.4855,0,U,69390,999,343,.41079909E-4,.103E-5,0
QIANFAN-174,2026-124K,2026-06-28T13:47:34.190592,14.20880055,.00039945,88.9984,0.7372,129.6628,230.4915,0,U,69391,999,343,.44689929E-4,.111E-5,0
QIANFAN-175,2026-124L,2026-06-28T13:41:46.210272,14.21341454,.00046647,88.9983,0.7365,141.9209,218.2312,0,U,69392,999,343,.42537156E-4,.107E-5,0
QIANFAN-176,2026-124M,2026-06-28T13:33:43.197120,14.21842758,.0003616,88.9984,0.7357,145.4222,214.7205,0,U,69393,999,343,.40941423E-4,.105E-5,0
QIANFAN-177,2026-124N,2026-06-28T13:20:54.424608,14.22732171,.00045937,88.9984,0.7343,123.0597,237.1036,0,U,69394,999,343,.43178033E-4,.111E-5,0
QIANFAN-178,2026-124P,2026-06-28T13:27:03.700800,14.22275803,.00039459,88.9983,0.7349,132.1943,227.9584,0,U,69395,999,343,.44690411E-4,.114E-5,0
QIANFAN-179,2026-124Q,2026-06-28T13:14:40.566624,14.23098855,.00039396,88.9983,0.7335,128.7236,231.4308,0,U,69396,999,343,.4260117E-4,.111E-5,0
QIANFAN-180,2026-124R,2026-06-28T13:08:09.629088,14.23620570,.00042719,88.9983,0.7330,137.7286,222.4236,0,U,69397,999,343,.47633787E-4,.123E-5,0
QIANFAN-181,2026-124S,2026-06-28T13:20:50.877888,14.16650699,.00029863,88.9983,0.7530,105.1815,254.9704,0,U,69398,999,342,.40270218E-4,.95E-6,0
QIANFAN-182,2026-124T,2026-06-28T14:25:14.378304,14.18740102,.00033479,88.9984,0.7412,124.2148,235.9359,0,U,69399,999,343,.4245349E-4,.102E-5,0
QIANFAN-183,2026-125A,2026-06-28T13:43:58.812672,14.16466679,.00154689,88.9954,279.1612,139.1396,221.0955,0,U,69401,999,331,.17021855E-3,.353E-5,0
QIANFAN-184,2026-125B,2026-06-28T13:31:30.567936,14.16886771,.00163426,88.9955,279.1601,133.5598,226.6950,0,U,69402,999,331,.17747012E-3,.37E-5,0
QIANFAN-185,2026-125C,2026-06-28T15:21:43.100352,14.16091607,.00171821,88.9956,279.1528,133.8615,226.3996,0,U,69403,999,332,.17900155E-3,.368E-5,0
QIANFAN-186,2026-125D,2026-06-28T13:18:51.758208,14.17437624,.00156345,88.9955,279.1588,134.8860,225.3601,0,U,69404,999,331,.17388365E-3,.367E-5,0
QIANFAN-187,2026-125E,2026-06-28T13:06:05.539680,14.18348343,.00161415,88.9955,279.1573,135.9689,224.2789,0,U,69405,999,331,.17313781E-3,.371E-5,0
QIANFAN-188,2026-125F,2026-06-28T12:50:12.101856,14.19440661,.0016119,88.9955,279.1555,139.4091,220.8304,0,U,69406,999,331,.17834453E-3,.39E-5,0
QIANFAN-189,2026-125G,2026-06-28T12:57:00.443808,14.18759564,.0015364,88.9955,279.1564,136.8872,223.3524,0,U,69407,999,331,.17062297E-3,.369E-5,0
QIANFAN-190,2026-125H,2026-06-28T12:50:12.869952,14.19222631,.00161456,88.9956,279.1558,138.4767,221.7652,0,U,69408,999,331,.16848164E-3,.368E-5,0
QIANFAN-191,2026-125J,2026-06-28T14:17:22.421760,14.20094063,.00155649,88.9955,279.1461,137.1382,223.1024,0,U,69409,999,332,.17408074E-3,.386E-5,0
QIANFAN-192,2026-125K,2026-06-28T14:10:05.028672,14.20520079,.0016433,88.9956,279.1455,137.4910,222.7556,0,U,69410,999,332,.17647885E-3,.394E-5,0
QIANFAN-193,2026-125L,2026-06-28T14:01:06.055104,14.20962653,.00163137,88.9955,279.1445,137.8637,222.3811,0,U,69411,999,332,.17592386E-3,.396E-5,0
QIANFAN-194,2026-125M,2026-06-28T13:54:34.282944,14.21404363,.00156052,88.9955,279.1437,141.3828,218.8482,0,U,69412,999,331,.17106578E-3,.388E-5,0
QIANFAN-195,2026-125N,2026-06-28T13:48:29.908224,14.21801776,.00168003,88.9955,279.1431,140.1085,220.1344,0,U,69413,999,332,.17566241E-3,.401E-5,0
QIANFAN-196,2026-125P,2026-06-28T15:22:34.630176,14.22296916,.00169154,88.9956,279.1343,140.3292,219.9140,0,U,69414,999,333,.16921021E-3,.391E-5,0
QIANFAN-197,2026-125Q,2026-06-28T13:35:35.574144,14.22741332,.00151818,88.9955,279.1417,137.6444,222.5923,0,U,69415,999,331,.17196027E-3,.4E-5,0
QIANFAN-198,2026-125R,2026-06-28T15:24:10.096992,14.22068073,.00154975,88.9955,279.1345,136.8924,223.3484,0,U,69416,999,333,.17111843E-3,.393E-5,0
