QIANFAN-170             
1 69387U 26124F   26179.59556667  .00000094  00000+0  38190-4 0  9999
2 69387  88.9983   0.7402 0003791 111.9491 248.2102 14.19185176  3431
QIANFAN-171             
1 69388U 26124G   26179.58552674  .00000095  00000+0  37950-4 0  9997
2 69388  88.9984   0.7388 0003440 150.5377 209.6007 14.20069274  3436
QIANFAN-172             
1 69389U 26124H   26179.59011076  .00000104  00000+0  42284-4 0  9992
2 69389  88.9984   0.7395 0003543 132.6099 227.5391 14.19640022  3430
QIANFAN-173             
1 69390U 26124J   26179.58067619  .00000103  00000+0  41080-4 0  9999
2 69390  88.9984   0.7381 0003730 124.6687 235.4855 14.20511390  3439
QIANFAN-174             
1 69391U 26124K   26179.57470128  .00000111  00000+0  44690-4 0  9991
2 69391  88.9984   0.7372 0003994 129.6628 230.4915 14.20880055  3431
QIANFAN-175             
1 69392U 26124L   26179.57067373  .00000107  00000+0  42537-4 0  9999
2 69392  88.9983   0.7365 0004664 141.9209 218.2312 14.21341454  3431
QIANFAN-176             
1 69393U 26124M   26179.56508330  .00000105  00000+0  40941-4 0  9997
2 69393  88.9984   0.7357 0003616 145.4222 214.7205 14.21842758  3439
QIANFAN-177             
1 69394U 26124N   26179.55618547  .00000111  00000+0  43178-4 0  9991
2 69394  88.9984   0.7343 0004593 123.0597 237.1036 14.22732171  3436
QIANFAN-178             
1 69395U 26124P   26179.56045950  .00000114  00000+0  44690-4 0  9998
2 69395  88.9983   0.7349 0003945 132.1943 227.9584 14.22275803  3437
QIANFAN-179             
1 69396U 26124Q   26179.55185841  .00000111  00000+0  42601-4 0  9999
2 69396  88.9983   0.7335 0003939 128.7236 231.4308 14.23098855  3437
QIANFAN-180             
1 69397U 26124R   26179.54733367  .00000123  00000+0  47634-4 0  9995
2 69397  88.9983   0.7330 0004271 137.7286 222.4236 14.23620570  3433
QIANFAN-181             
1 69398U 26124S   26179.55614442  .00000095  00000+0  40270-4 0  9996
2 69398  88.9983   0.7530 0002986 105.1815 254.9704 14.16650699  3420
QIANFAN-182             
1 69399U 26124T   26179.60086086  .00000102  00000+0  42453-4 0  9994
2 69399  88.9984   0.7412 0003347 124.2148 235.9359 14.18740102  3431
QIANFAN-183             
1 69401U 26125A   26179.57220848  .00000353  00000+0  17022-3 0  9992
2 69401  88.9954 279.1612 0015468 139.1396 221.0955 14.16466679  3310
QIANFAN-184             
1 69402U 26125B   26179.56354824  .00000370  00000+0  17747-3 0  9997
2 69402  88.9955 279.1601 0016342 133.5598 226.6950 14.16886771  3319
QIANFAN-185             
1 69403U 26125C   26179.64008218  .00000368  00000+0  17900-3 0  9998
2 69403  88.9956 279.1528 0017182 133.8615 226.3996 14.16091607  3329
QIANFAN-186             
1 69404U 26125D   26179.55476572  .00000367  00000+0  17388-3 0  9990
2 69404  88.9955 279.1588 0015634 134.8860 225.3601 14.17437624  3313
QIANFAN-187             
1 69405U 26125E   26179.54589745  .00000371  00000+0  17314-3 0  9991
2 69405  88.9955 279.1573 0016141 135.9689 224.2789 14.18348343  3318
QIANFAN-188             
1 69406U 26125F   26179.53486229  .00000390  00000+0  17834-3 0  9992
2 69406  88.9955 279.1555 0016119 139.4091 220.8304 14.19440661  3312
QIANFAN-189             
1 69407U 26125G   26179.53958847  .00000369  00000+0  17062-3 0  9992
2 69407  88.9955 279.1564 0015364 136.8872 223.3524 14.18759564  3318
QIANFAN-190             
1 69408U 26125H   26179.53487118  .00000368  00000+0  16848-3 0  9991
2 69408  88.9956 279.1558 0016145 138.4767 221.7652 14.19222631  3317
QIANFAN-191             
1 69409U 26125J   26179.59539840  .00000386  00000+0  17408-3 0  9991
2 69409  88.9955 279.1461 0015564 137.1382 223.1024 14.20094063  3321
QIANFAN-192             
1 69410U 26125K   26179.59033598  .00000394  00000+0  17648-3 0  9997
2 69410  88.9956 279.1455 0016433 137.4910 222.7556 14.20520079  3329
QIANFAN-193             
1 69411U 26125L   26179.58409786  .00000396  00000+0  17592-3 0  9993
2 69411  88.9955 279.1445 0016313 137.8637 222.3811 14.20962653  3323
QIANFAN-194             
1 69412U 26125M   26179.57956346  .00000388  00000+0  17107-3 0  9995
2 69412  88.9955 279.1437 0015605 141.3828 218.8482 14.21404363  3313
QIANFAN-195             
1 69413U 26125N   26179.57534616  .00000401  00000+0  17566-3 0  9993
2 69413  88.9955 279.1431 0016800 140.1085 220.1344 14.21801776  3321
QIANFAN-196             
1 69414U 26125P   26179.64067859  .00000391  00000+0  16921-3 0  9994
2 69414  88.9956 279.1343 0016915 140.3292 219.9140 14.22296916  3330
QIANFAN-197             
1 69415U 26125Q   26179.56638396  .00000400  00000+0  17196-3 0  9992
2 69415  88.9955 279.1417 0015181 137.6444 222.5923 14.22741332  3318
QIANFAN-198             
1 69416U 26125R   26179.64178353  .00000393  00000+0  17112-3 0  9993
2 69416  88.9955 279.1345 0015497 136.8924 223.3484 14.22068073  3330
